XRISM                   
1 57800U 23137A   24259.94930360  .00012121  00000+0  87744-3 0  9991
2 57800  31.0030 154.2880 0009397  23.4980 336.6084 15.02777986 56262
